PROGRESS-MS 31          
1 64751U 25146A   25334.54411181  .00007982  00000+0  15180-3 0  9996
2 64751  51.6312 202.8529 0003690 187.0517 173.0420 15.49206888  6754
TIANZHOU-9              
1 64786U 25149A   25334.60566182  .00016368  00000+0  21219-3 0  9994
2 64786  41.4666  90.3296 0010499 300.6819  59.2984 15.58433763255306
CREW DRAGON 11          
1 65077U 25166A   25334.54411181  .00007982  00000+0  15180-3 0  9990
2 65077  51.6312 202.8529 0003690 187.0517 173.0420 15.49206888  2145
DRAGON CRS-33           
1 65304U 25186A   25334.54411181  .00007982  00000+0  15180-3 0  9995
2 65304  51.6312 202.8529 0003690 187.0517 173.0420 15.49206888   113
PROGRESS-MS 32          
1 65586U 25204A   25334.54411181  .00007982  00000+0  15180-3 0  9998
2 65586  51.6312 202.8529 0003690 187.0517 173.0420 15.49206888   272
CYGNUS NG-23            
1 65616U 25208A   25334.54411181  .00007982  00000+0  15180-3 0  9996
2 65616  51.6312 202.8529 0003690 187.0517 173.0420 15.49206888   221
DRAGONFLY               
1 65729U 98067XH  25334.06728159  .00136962  00000+0  12301-2 0  9999
2 65729  51.6265 200.4173 0006450 201.2290 158.8439 15.67290907 11178
1998-067XJ              
1 65730U 98067XJ  25334.78087972  .02083121  36478-2  26017-2 0  9991
2 65730  51.6135 191.6004 0011096 229.1502 130.8550 16.07771346 11357
